[{"OBJECT_NAME":"UNICORN-2L","OBJECT_ID":"2023-185R","EPOCH":"2026-03-09T22:52:50.754144","MEAN_MOTION":15.19481875,"ECCENTRICITY":0.00120211,"INCLINATION":97.5467,"RA_OF_ASC_NODE":142.778,"ARG_OF_PERICENTER":300.2318,"MEAN_ANOMALY":59.7725,"EPHEMERIS_TYPE":0,"CLASSIFICATION_TYPE":"U","NORAD_CAT_ID":58727,"ELEMENT_SET_NO":999,"REV_AT_EPOCH":11971,"BSTAR":0.00055843151,"MEAN_MOTION_DOT":0.0001181,"MEAN_MOTION_DDOT":0},{"OBJECT_NAME":"LEGION 6","OBJECT_ID":"2025-025B","EPOCH":"2026-03-09T22:31:51.248640","MEAN_MOTION":15.16188393,"ECCENTRICITY":0.00128841,"INCLINATION":45.002,"RA_OF_ASC_NODE":22.5436,"ARG_OF_PERICENTER":290.9928,"MEAN_ANOMALY":68.9572,"EPHEMERIS_TYPE":0,"CLASSIFICATION_TYPE":"U","NORAD_CAT_ID":62901,"ELEMENT_SET_NO":999,"REV_AT_EPOCH":6057,"BSTAR":0.00036964993,"MEAN_MOTION_DOT":7.014e-5,"MEAN_MOTION_DDOT":0}]
